[{"OBJECT_NAME":"STARLINK-6129","OBJECT_ID":"2023-090R","EPOCH":"2026-03-09T13:33:09.294624","MEAN_MOTION":15.02533295,"ECCENTRICITY":0.00011496,"INCLINATION":43.0033,"RA_OF_ASC_NODE":275.4111,"ARG_OF_PERICENTER":271.2361,"MEAN_ANOMALY":88.835,"EPHEMERIS_TYPE":0,"CLASSIFICATION_TYPE":"U","NORAD_CAT_ID":57116,"ELEMENT_SET_NO":999,"REV_AT_EPOCH":15039,"BSTAR":-1.0672302e-5,"MEAN_MOTION_DOT":-3.48e-6,"MEAN_MOTION_DDOT":0},{"OBJECT_NAME":"CZ-4B DEB","OBJECT_ID":"1999-057P","EPOCH":"2026-03-09T10:31:29.691840","MEAN_MOTION":14.91091708,"ECCENTRICITY":0.00558084,"INCLINATION":98.442,"RA_OF_ASC_NODE":235.9963,"ARG_OF_PERICENTER":58.1221,"MEAN_ANOMALY":355.8675,"EPHEMERIS_TYPE":0,"CLASSIFICATION_TYPE":"U","NORAD_CAT_ID":26127,"ELEMENT_SET_NO":999,"REV_AT_EPOCH":36984,"BSTAR":0.001630359,"MEAN_MOTION_DOT":0.00016608,"MEAN_MOTION_DDOT":0}]
